[{"OBJECT_NAME":"SHIYAN-27 E","OBJECT_ID":"2025-078E","EPOCH":"2026-03-09T23:22:34.446720","MEAN_MOTION":13.57242291,"ECCENTRICITY":7.842e-5,"INCLINATION":99.6934,"RA_OF_ASC_NODE":77.609,"ARG_OF_PERICENTER":97.9766,"MEAN_ANOMALY":262.1462,"EPHEMERIS_TYPE":0,"CLASSIFICATION_TYPE":"U","NORAD_CAT_ID":63603,"ELEMENT_SET_NO":999,"REV_AT_EPOCH":4407,"BSTAR":0.000129575,"MEAN_MOTION_DOT":4.8e-7,"MEAN_MOTION_DDOT":0},{"OBJECT_NAME":"SERT 2","OBJECT_ID":"1970-009A","EPOCH":"2026-03-09T20:18:10.493856","MEAN_MOTION":13.58729889,"ECCENTRICITY":0.00050504,"INCLINATION":99.2756,"RA_OF_ASC_NODE":11.9309,"ARG_OF_PERICENTER":155.3546,"MEAN_ANOMALY":266.5977,"EPHEMERIS_TYPE":0,"CLASSIFICATION_TYPE":"U","NORAD_CAT_ID":4327,"ELEMENT_SET_NO":999,"REV_AT_EPOCH":77991,"BSTAR":8.7291447e-5,"MEAN_MOTION_DOT":2.3e-7,"MEAN_MOTION_DDOT":0}]
